NORAD_CAT_ID,OBJECT_NAME,OBJECT_TYPE,EPOCH,MEAN_MOTION,ECCENTRICITY,INCLINATION,RA_OF_ASC_NODE,ARG_OF_PERICENTER,MEAN_ANOMALY,BSTAR,MEAN_MOTION_DOT,MEAN_MOTION_DDOT,TLE_LINE0,TLE_LINE1,TLE_LINE2,SEMIMAJOR_AXIS,PERIOD,APOGEE,PERIGEE,DECAYED
52853.0,STARLINK-4189,PAYLOAD,2022-07-05 14:00:01,15.73261437,0.0001595,53.2156,315.4938,44.0212,305.2676,-0.00086508,-0.00120624,0.0,0 STARLINK-4189,1 52853U 22062Z   22186.58334491 -.00120624  00000-0 -86508-3 0  9998,2 52853  53.2156 315.4938 0001595  44.0212 305.2676 15.73261437  3341,6727.72,91.53,350.658,348.51199999999994,0.0
52853.0,STARLINK-4189,PAYLOAD,2022-07-05 22:00:00,15.73194481,0.0001721999999999,53.2159,313.8444,38.9226,39.314,-0.000709,-0.00098944,0.0,0 STARLINK-4189,1 52853U 22062Z   22186.91667824 -.00098944  00000-0 -70900-3 0  9992,2 52853  53.2159 313.8444 0001722  38.9226  39.3140 15.73194481  1306,6727.911,91.534,350.934,348.617,0.0
52853.0,STARLINK-4189,PAYLOAD,2022-07-06 06:00:00,15.73053214,0.0001468,53.2157,312.1936,38.1689,128.7814,0.0012725,0.00180721,0.0,0 STARLINK-4189,1 52853U 22062Z   22187.25001157  .00180721  00000-0  12725-2 0  9994,2 52853  53.2157 312.1936 0001468  38.1689 128.7814 15.73053214  3440,6728.314,91.542,351.166,349.191,0.0
52853.0,STARLINK-4189,PAYLOAD,2022-07-06 14:00:01,15.73201253,0.0001643,53.2157,310.546,31.6987,224.0724,6.448100000000001e-05,8.439e-05,0.0,0 STARLINK-4189,1 52853U 22062Z   22187.58334491  .00008439  00000-0  64481-4 0  9993,2 52853  53.2157 310.5460 0001643  31.6987 224.0724 15.73201253  1309,6727.892,91.533,350.862,348.651,0.0
52853.0,STARLINK-4189,PAYLOAD,2022-07-06 22:00:00,15.73118438,0.0001756,53.2158,308.8961,31.9192,312.8001,0.002436,0.00354862,0.0,0 STARLINK-4189,1 52853U 22062Z   22187.91667824  .00354862  00000-0  24360-2 0  9993,2 52853  53.2158 308.8961 0001756  31.9192 312.8001 15.73118438  3557,6728.128000000002,91.538,351.1740000000001,348.811,0.0
52853.0,STARLINK-4189,PAYLOAD,2022-07-07 04:09:50,15.73222631,0.000156,53.2158,307.6245,32.6832,327.4284,0.00029873,0.00041553,0.0,0 STARLINK-4189,1 52853U 22062Z   22188.17350681  .00041553  00000-0  29873-3 0  9997,2 52853  53.2158 307.6245 0001560  32.6832 327.4284 15.73222631  3591,6727.831,91.532,350.745,348.646,0.0
52853.0,STARLINK-4189,PAYLOAD,2022-07-07 14:00:01,15.73273906,0.0001737,53.2154,305.5972,31.8844,130.7554,-0.00014067,-0.00020379,0.0,0 STARLINK-4189,1 52853U 22062Z   22188.58334491 -.00020379  00000-0 -14067-3 0  9997,2 52853  53.2154 305.5972 0001737  31.8844 130.7554 15.73273906  1304,6727.684,91.529,350.718,348.381,0.0
52853.0,STARLINK-4189,PAYLOAD,2022-07-07 22:00:00,15.73265445,0.00019,53.2158,303.9471,32.2855,219.3658,-0.00058985,-0.00082829,0.0,0 STARLINK-4189,1 52853U 22062Z   22188.91667824 -.00082829  00000-0 -58985-3 0  9998,2 52853  53.2158 303.9471 0001900  32.2855 219.3658 15.73265445  3718,6727.709,91.529,350.852,348.295,0.0
52853.0,STARLINK-4189,PAYLOAD,2022-07-08 06:00:02,15.73201531,0.0001946,53.2157,302.2955,42.5887,298.1809,0.00069735,0.00098411,0.0,0 STARLINK-4189,1 52853U 22062Z   22189.25002315  .00098411  00000-0  69735-3 0  9991,2 52853  53.2157 302.2955 0001946  42.5887 298.1809 15.73201531  3769,6727.891,91.533,351.065,348.44699999999995,0.0
52853.0,STARLINK-4189,PAYLOAD,2022-07-08 14:00:01,15.73329202,0.0002155,53.2156,300.6478,36.4453,33.2627,-0.00019747,-0.00028399,0.0,0 STARLINK-4189,1 52853U 22062Z   22189.58334491 -.00028399  00000-0 -19747-3 0  9998,2 52853  53.2156 300.6478 0002155  36.4453  33.2627 15.73329202  3812,6727.526999999999,91.526,350.842,347.94199999999995,0.0
52853.0,STARLINK-4189,PAYLOAD,2022-07-08 22:00:01,15.73335274,0.0002029,53.2153,298.9975,29.8633,128.9789,-0.0004939,-0.00069772,0.0,0 STARLINK-4189,1 52853U 22062Z   22189.91668981 -.00069772  00000-0 -49390-3 0  9996,2 52853  53.2153 298.9975 0002029  29.8633 128.9789 15.73335274  1305,6727.51,91.525,350.74,348.01,0.0
52853.0,STARLINK-4189,PAYLOAD,2022-07-09 06:00:00,15.73203915,0.00022,53.2173,297.3456,45.7306,201.7126,4.3526e-06,-1.1e-07,0.0,0 STARLINK-4189,1 52853U 22062Z   22190.25001157 -.00000011  00000-0  43526-5 0  9998,2 52853  53.2173 297.3456 0002200  45.7306 201.7126 15.73203915  3920,6727.884,91.533,351.22900000000016,348.269,0.0
52853.0,STARLINK-4189,PAYLOAD,2022-07-09 14:00:01,15.73205262,0.0002327,53.2172,295.6982,43.5834,292.7923,-1.4836e-05,-2.704e-05,0.0,0 STARLINK-4189,1 52853U 22062Z   22190.58334491 -.00002704  00000-0 -14836-4 0  9997,2 52853  53.2172 295.6982 0002327  43.5834 292.7923 15.73205262  1308,6727.88,91.533,351.311,348.18,0.0
52853.0,STARLINK-4189,PAYLOAD,2022-07-09 20:00:01,15.73237529,0.0002102,53.2154,294.462,28.3662,284.8492,-0.00038822,-0.00054844,0.0,0 STARLINK-4189,1 52853U 22062Z   22190.83334491 -.00054844  00000-0 -38822-3 0  9997,2 52853  53.2154 294.4620 0002102  28.3662 284.8492 15.73237529  1309,6727.788000000001,91.531,351.06699999999995,348.23900000000015,0.0
52853.0,STARLINK-4189,PAYLOAD,2022-07-10 14:00:01,15.73226731,0.0002158,53.2162,290.7505,25.9112,217.39,-0.00061121,-0.0008564,0.0,0 STARLINK-4189,1 52853U 22062Z   22191.58334491 -.00085640  00000-0 -61121-3 0  9996,2 52853  53.2162 290.7505 0002158  25.9112 217.3900 15.73226731  4135,6727.819,91.532,351.136,348.232,0.0
52853.0,STARLINK-4189,PAYLOAD,2022-07-10 22:00:00,15.73195292,0.000208,53.2158,289.1001,20.9353,311.3126,5.8641e-05,7.615e-05,0.0,0 STARLINK-4189,1 52853U 22062Z   22191.91667824  .00007615  00000-0  58641-4 0  9990,2 52853  53.2158 289.1001 0002080  20.9353 311.3126 15.73195292  4186,6727.909000000002,91.533,351.173,348.374,0.0
52853.0,STARLINK-4189,PAYLOAD,2022-07-11 14:00:01,15.73182572,0.000229,53.2159,285.8021,25.3983,124.7385,0.00014013,0.00019077,0.0,0 STARLINK-4189,1 52853U 22062Z   22192.58334491  .00019077  00000-0  14013-3 0  9994,2 52853  53.2159 285.8021 0002290  25.3983 124.7385 15.73182572  1304,6727.945,91.534,351.351,348.269,0.0
52853.0,STARLINK-4189,PAYLOAD,2022-07-11 22:00:00,15.73233748,0.0002224,53.2159,284.1517,23.5986,215.4523,-0.00071924,-0.00100523,0.0,0 STARLINK-4189,1 52853U 22062Z   22192.91667824 -.00100523  00000-0 -71924-3 0  9993,2 52853  53.2159 284.1517 0002224  23.5986 215.4523 15.73233748  1300,6727.799,91.531,351.16,348.168,0.0
52853.0,STARLINK-4189,PAYLOAD,2022-07-12 06:00:00,15.73166041,0.0002118,53.2164,282.501,24.0813,303.8897,0.00045172,0.00063164,0.0,0 STARLINK-4189,1 52853U 22062Z   22193.25001157  .00063164  00000-0  45172-3 0  9995,2 52853  53.2164 282.5010 0002118  24.0813 303.8897 15.73166041  4392,6727.9919999999975,91.535,351.282,348.432,0.0
52853.0,STARLINK-4189,PAYLOAD,2022-07-12 14:00:01,15.73243575,0.0002425,53.2163,280.8538,20.3736,36.542,-5.917100000000001e-05,-8.934e-05,0.0,0 STARLINK-4189,1 52853U 22062Z   22193.58334491 -.00008934  00000-0 -59171-4 0  9992,2 52853  53.2163 280.8538 0002425  20.3736  36.5420 15.73243575  4447,6727.771,91.531,351.267,348.004,0.0
52853.0,STARLINK-4189,PAYLOAD,2022-07-12 22:00:00,15.73235864,0.0002326,53.2159,279.2031,17.4504,128.454,0.00013393,0.00018246,0.0,0 STARLINK-4189,1 52853U 22062Z   22193.91667824  .00018246  00000-0  13393-3 0  9998,2 52853  53.2159 279.2031 0002326  17.4504 128.4540 15.73235864  1300,6727.793000000002,91.531,351.223,348.093,0.0
52853.0,STARLINK-4189,PAYLOAD,2022-07-13 14:00:01,15.73190801,0.0002539,53.2158,275.9056,21.6341,302.2035,-0.0005069,-0.00071148,0.0,0 STARLINK-4189,1 52853U 22062Z   22194.58334491 -.00071148  00000-0 -50690-3 0  9996,2 52853  53.2158 275.9056 0002539  21.6341 302.2035 15.73190801  4609,6727.920999999999,91.534,351.495,348.07800000000015,0.0
52853.0,STARLINK-4189,PAYLOAD,2022-07-13 22:00:00,15.73135909,0.0002477,53.2156,274.2549,22.4036,30.3143,0.00015899,0.00021691,0.0,0 STARLINK-4189,1 52853U 22062Z   22194.91667824  .00021691  00000-0  15899-3 0  9990,2 52853  53.2156 274.2549 0002477  22.4036  30.3143 15.73135909  1308,6728.078,91.537,351.6090000000001,348.276,0.0
52853.0,STARLINK-4189,PAYLOAD,2022-07-14 08:00:01,15.73189564,0.000246,53.2159,272.1931,22.6489,231.1373,-0.00055933,-0.00078371,0.0,0 STARLINK-4189,1 52853U 22062Z   22195.33334491 -.00078371  00000-0 -55933-3 0  9990,2 52853  53.2159 272.1931 0002460  22.6489 231.1373 15.73189564  4720,6727.925,91.534,351.445,348.135,0.0
52853.0,STARLINK-4189,PAYLOAD,2022-07-14 14:00:01,15.73105758,0.0002714,53.2158,270.9576,19.2927,211.161,0.00047384,0.00066144,0.0,0 STARLINK-4189,1 52853U 22062Z   22195.58334491  .00066144  00000-0  47384-3 0  9991,2 52853  53.2158 270.9576 0002714  19.2927 211.1610 15.73105758  1307,6728.1640000000025,91.539,351.855,348.20300000000015,0.0
52853.0,STARLINK-4189,PAYLOAD,2022-07-14 22:00:00,15.73164864,0.0002578,53.2153,269.3068,19.8433,299.4578,0.00015081,0.00020566,0.0,0 STARLINK-4189,1 52853U 22062Z   22195.91667824  .00020566  00000-0  15081-3 0  9994,2 52853  53.2153 269.3068 0002578  19.8433 299.4578 15.73164864  4810,6727.995,91.535,351.595,348.126,0.0
52853.0,STARLINK-4189,PAYLOAD,2022-07-15 14:00:01,15.73204677,0.0002796,53.2149,266.0095,19.3188,117.8167,0.00057075,0.00080275,0.0,0 STARLINK-4189,1 52853U 22062Z   22196.58334491  .00080275  00000-0  57075-3 0  9991,2 52853  53.2149 266.0095 0002796  19.3188 117.8167 15.73204677  4918,6727.882,91.533,351.62800000000016,347.866,0.0
52853.0,STARLINK-4189,PAYLOAD,2022-07-15 22:00:00,15.73280437,0.0002631999999999,53.2149,264.3582,17.3092,208.7962,-0.00059548,-0.00083671,0.0,0 STARLINK-4189,1 52853U 22062Z   22196.91667824 -.00083671  00000-0 -59548-3 0  9999,2 52853  53.2149 264.3582 0002632  17.3092 208.7962 15.73280437  1302,6727.666,91.529,351.302,347.76,0.0
52853.0,STARLINK-4189,PAYLOAD,2022-07-16 06:00:00,15.73198873,0.0002579,53.2172,262.7053,23.8753,291.1893,6.9519e-05,9.146e-05,0.0,0 STARLINK-4189,1 52853U 22062Z   22197.25001157  .00009146  00000-0  69519-4 0  9991,2 52853  53.2172 262.7053 0002579  23.8753 291.1893 15.73198873  5023,6727.898,91.533,351.499,348.028,0.0
